JINJUSat 1B
1 63210U 25052A   26198.15287815  .00009197  00000-0  27849-3 0  9998
2 63210  97.3963  94.9621 0002992  24.0543 336.0839 15.34389853 74699
NUSHSAT 1
1 63211U 25052B   26198.14611799  .00011698  00000-0  32438-3 0  9999
2 63211  97.3940  95.6294 0002987  35.5753 324.5690 15.37089229 74743
TEVEL2-4
1 63213U 25052D   26198.68765830  .00009609  00000-0  27972-3 0  9992
2 63213  97.3859  95.1461 0003368  46.9378 313.2147 15.35621096 74797
TEVEL2-5
1 63214U 25052E   26197.66900195  .00011058  00000-0  32363-3 0  9996
2 63214  97.3862  94.0641 0003463  50.3372 309.8177 15.35411833 74632
TEVEL2-6
1 63215U 25052F   26198.65959542  .00009817  00000-0  28776-3 0  9990
2 63215  97.3864  95.0416 0003363  51.0715 309.0827 15.35395037 74781
TEVEL2-1
1 63217U 25052H   26198.50401060  .00009140  00000-0  27300-3 0  9994
2 63217  97.3833  94.4731 0004106  55.4900 304.6730 15.34820987 74748
TEVEL2-3
1 63218U 25052J   26198.62786326  .00008807  00000-0  26261-3 0  9993
2 63218  97.3840  94.6233 0003811  57.5215 302.6396 15.34886314 74764
TEVEL2-2
1 63219U 25052K   26198.43892551  .00009542  00000-0  28479-3 0  9991
2 63219  97.3834  94.4108 0004139  55.7304 304.4330 15.34831434 74738
TEVEL2-9
1 63237U 25052AD  26197.67279632  .00010133  00000-0  32238-3 0  9991
2 63237  97.3899  92.9536 0007557  53.0535 307.1398 15.32762164 74545
TEVEL2-7
1 63238U 25052AE  26198.17666353  .00008943  00000-0  28760-3 0  9999
2 63238  97.3898  93.3596 0007602  51.1945 308.9975 15.32453102 74618
TEVEL2-8
1 63239U 25052AF  26197.66282234  .00009609  00000-0  30904-3 0  9998
2 63239  97.3904  92.8233 0007711  54.0583 306.1374 15.32429153 74533
SPIRONE
1 66657U 25274H   26198.53599146  .00001001  00000-0  10006-3 0  9990
2 66657  97.7472 127.3952 0010377 274.3605  85.6429 14.93656671 34753
K-HERO
1 66660U 25274L   26198.26431398  .00000785  00000-0  78787-4 0  9997
2 66660  97.7480 127.3105 0012303 280.1373  79.8459 14.94064034 34726
SNUGLITE-III DURI
1 66661U 25274M   26197.78260426  .00000435  00000-0  46032-4 0  9996
2 66661  97.7477 126.8561 0012951 283.1653  76.8122 14.94093166 34650
SAKHACUBE-CHOLBON
1 67290U 25313AU  26198.66857256  .00004702  00000-0  18900-3 0  9993
2 67290  97.3920 273.3313 0007900 240.5934 119.4516 15.25385529 30624
RS95S (QMR-KWT-2)
1 67291U 25313AV  26198.62646624  .00007221  00000-0  27495-3 0  9993
2 67291  97.3917 273.5336 0007638 236.6544 123.3965 15.27012118 30635
Ten-Koh2
1 68261U 25241B   26198.31006998  .00002321  00000-0  10767-3 0  9991
2 68261  51.6580 176.2364 0004561 237.5049 122.5488 15.24183891 19502
JACK-002
1 68417U 26067B   26198.32073699  .00003152  00000-0  15071-3 0  9990
2 68417  97.4587 156.5489 0003179 130.3901 229.7612 15.19728479 16529
DISCO 2
1 68431U 26067R   26198.61080161  .00003869  00000-0  18553-3 0  9993
2 68431  97.4620 156.8253 0000891 164.4878 195.6384 15.19490306 16560
HADES-SA (SpinnyONE)
1 68446U 26067AG  26198.31520713  .00009312  00000-0  43483-3 0  9997
2 68446  97.4418 156.1837 0005708 356.1044   4.0145 15.20023369 16504
PARUS-6U1
1 68456U 26067AS  26197.85803420  .00002823  00000-0  14295-3 0  9994
2 68456  97.4570 155.7738 0004550 342.2148  17.8926 15.17804055 16430
SAL-E
1 68458U 26067AU  26198.30904418  .00004039  00000-0  20104-3 0  9993
2 68458  97.4497 156.1381 0005011 351.8093   8.3058 15.18156034 16504
FSI-SAT 2
1 68792U 26088A   26198.36536311  .00002533  00000-0  17270-3 0  9993
2 68792  97.5103 346.8764 0014323  10.0284 350.1227 15.07048165 12836
OrigamiSat 2
1 68795U 26088D   26198.39856336  .00005382  00000-0  34042-3 0  9992
2 68795  97.5109 347.1425 0013854 339.4003  20.6665 15.09350261 12850
ARICA 2
1 68796U 26088E   26198.40833642  .00001775  00000-0  11713-3 0  9992
2 68796  97.5102 347.1148 0014761 340.4564  19.6097 15.08639589 12857
WASEDA-SAT-ZERO-II
1 68797U 26088F   26198.66405333  .00002295  00000-0  14910-3 0  9993
2 68797  97.5097 347.3847 0014500 338.9277  21.1353 15.08943559 12895
MANGARO-II-Piscus
1 68798U 26088G   26197.85709095  .00001510  00000-0  99263-4 0  9990
2 68798  97.5103 346.6322 0018374 343.9567  16.1077 15.08972089 12779
IO-86
1 40931U          25360.30710720  .00000000  00000-0  12800-3 0    00
2 40931   6.0006 332.5373 0012733 338.8432   8.1437 14.79075515    01
LILIUM-4
1 71922C 26067AC  26089.50133053 -.00014632  00000 0 -74472-3 0    04
2 71922  97.4497  49.1617 0004341   5.9603 355.7042 15.16896692    16
